[{"OBJECT_NAME":"STARLINK-30347","OBJECT_ID":"2023-129B","EPOCH":"2026-03-09T22:00:01.999584","MEAN_MOTION":15.25398532,"ECCENTRICITY":0.00016166,"INCLINATION":43.0002,"RA_OF_ASC_NODE":105.1096,"ARG_OF_PERICENTER":266.1947,"MEAN_ANOMALY":44.1744,"EPHEMERIS_TYPE":0,"CLASSIFICATION_TYPE":"U","NORAD_CAT_ID":57699,"ELEMENT_SET_NO":999,"REV_AT_EPOCH":573,"BSTAR":0.03652228,"MEAN_MOTION_DOT":0.01025389,"MEAN_MOTION_DDOT":0},{"OBJECT_NAME":"CZ-4B DEB","OBJECT_ID":"2006-015E","EPOCH":"2026-03-09T20:34:53.082912","MEAN_MOTION":15.19885806,"ECCENTRICITY":0.00461993,"INCLINATION":98.0565,"RA_OF_ASC_NODE":201.7753,"ARG_OF_PERICENTER":62.4887,"MEAN_ANOMALY":298.1031,"EPHEMERIS_TYPE":0,"CLASSIFICATION_TYPE":"U","NORAD_CAT_ID":29538,"ELEMENT_SET_NO":999,"REV_AT_EPOCH":5389,"BSTAR":0.0022587151,"MEAN_MOTION_DOT":0.00050103,"MEAN_MOTION_DDOT":0}]
